{"type": "FeatureCollection", "features": [ {"type": "Feature", "properties": {"norad_id": 66520, "name": "STARLINK-35952", "group": "last-30-days", "lat": -35.05957166482833, "lon": -29.853961821200276, "alt_km": 353.0187353189622, "timestamp": "2025-12-04T17:48:38.963597+00:00", "meta": {"OBJECT_NAME": "STARLINK-35952", "OBJECT_ID": "2025-265E", "EPOCH": "2025-12-04T08:00:01.999872", "MEAN_MOTION": 15.74416567, "ECCENTRICITY": 0.00014354, "INCLINATION": 42.9994, "RA_OF_ASC_NODE": 103.7609, "ARG_OF_PERICENTER": 281.2308, "MEAN_ANOMALY": 157.6944, "EPHEMERIS_TYPE": 0, "CLASSIFICATION_TYPE": "U", "NORAD_CAT_ID": 66520, "ELEMENT_SET_NO": 999, "REV_AT_EPOCH": 364, "BSTAR": -0.013600961, "MEAN_MOTION_DOT": -0.01784388, "MEAN_MOTION_DDOT": 0}, "tle": {"line1": "1 66520U 25265E   25338.33335648 -.01784388  00000+0 -13601-1 0  9997", "line2": "2 66520  42.9994 103.7609 0001435 281.2308 157.6944 15.74416567  3646"}}, "geometry": {"type": "Point", "coordinates": [-29.853961821200276, -35.05957166482833]}}, {"type": "Feature", "properties": {"norad_id": 66521, "name": "STARLINK-35915", "group": "last-30-days", "lat": -35.90297761673843, "lon": -27.738468258647675, "alt_km": 353.1423771419413, "timestamp": "2025-12-04T17:48:38.963608+00:00", "meta": {"OBJECT_NAME": "STARLINK-35915", "OBJECT_ID": "2025-265F", "EPOCH": "2025-12-04T08:00:01.999872", "MEAN_MOTION": 15.74401307, "ECCENTRICITY": 8.631e-05, "INCLINATION": 42.9994, "RA_OF_ASC_NODE": 103.7561, "ARG_OF_PERICENTER": 250.9007, "MEAN_ANOMALY": 189.9494, "EPHEMERIS_TYPE": 0, "CLASSIFICATION_TYPE": "U", "NORAD_CAT_ID": 66521, "ELEMENT_SET_NO": 999, "REV_AT_EPOCH": 364, "BSTAR": -0.013452848, "MEAN_MOTION_DOT": -0.01765885, "MEAN_MOTION_DDOT": 0}, "tle": {"line1": "1 66521U 25265F   25338.33335648 -.01765885  00000+0 -13453-1 0  9994", "line2": "2 66521  42.9994 103.7561 0000863 250.9007 189.9494 15.74401307  3641"}}, "geometry": {"type": "Point", "coordinates": [-27.738468258647675, -35.90297761673843]}}, {"type": "Feature", "properties": {"norad_id": 66522, "name": "STARLINK-35946", "group": "last-30-days", "lat": -36.70686145504129, "lon": -25.58258831617189, "alt_km": 352.9450731265788, "timestamp": "2025-12-04T17:48:38.963621+00:00", "meta": {"OBJECT_NAME": "STARLINK-35946", "OBJECT_ID": "2025-265G", "EPOCH": "2025-12-04T08:00:01.999872", "MEAN_MOTION": 15.74421415, "ECCENTRICITY": 0.0001446, "INCLINATION": 42.9995, "RA_OF_ASC_NODE": 103.7514, "ARG_OF_PERICENTER": 270.9947, "MEAN_ANOMALY": 171.7843, "EPHEMERIS_TYPE": 0, "CLASSIFICATION_TYPE": "U", "NORAD_CAT_ID": 66522, "ELEMENT_SET_NO": 999, "REV_AT_EPOCH": 364, "BSTAR": -0.013841971, "MEAN_MOTION_DOT": -0.01812341, "MEAN_MOTION_DDOT": 0}, "tle": {"line1": "1 66522U 25265G   25338.33335648 -.01812341  00000+0 -13842-1 0  9997", "line2": "2 66522  42.9995 103.7514 0001446 270.9947 171.7843 15.74421415  3643"}}, "geometry": {"type": "Point", "coordinates": [-25.58258831617189, -36.70686145504129]}}, {"type": "Feature", "properties": {"norad_id": 66523, "name": "STARLINK-35969", "group": "last-30-days", "lat": -37.46844365842032, "lon": -23.389606906600868, "alt_km": 353.17762219401175, "timestamp": "2025-12-04T17:48:38.963631+00:00", "meta": {"OBJECT_NAME": "STARLINK-35969", "OBJECT_ID": "2025-265H", "EPOCH": "2025-12-04T08:00:01.999872", "MEAN_MOTION": 15.74429834, "ECCENTRICITY": 8.998e-05, "INCLINATION": 42.9996, "RA_OF_ASC_NODE": 103.7467, "ARG_OF_PERICENTER": 251.719, "MEAN_ANOMALY": 192.946, "EPHEMERIS_TYPE": 0, "CLASSIFICATION_TYPE": "U", "NORAD_CAT_ID": 66523, "ELEMENT_SET_NO": 999, "REV_AT_EPOCH": 364, "BSTAR": -0.013705129, "MEAN_MOTION_DOT": -0.01796835, "MEAN_MOTION_DDOT": 0}, "tle": {"line1": "1 66523U 25265H   25338.33335648 -.01796835  00000+0 -13705-1 0  9995", "line2": "2 66523  42.9996 103.7467 0000899 251.7190 192.9460 15.74429834  3643"}}, "geometry": {"type": "Point", "coordinates": [-23.389606906600868, -37.46844365842032]}}, {"type": "Feature", "properties": {"norad_id": 66524, "name": "STARLINK-35687", "group": "last-30-days", "lat": -38.188644221603354, "lon": -21.151593570897344, "alt_km": 353.06455633533733, "timestamp": "2025-12-04T17:48:38.963641+00:00", "meta": {"OBJECT_NAME": "STARLINK-35687", "OBJECT_ID": "2025-265J", "EPOCH": "2025-12-04T08:00:01.999872", "MEAN_MOTION": 15.74429896, "ECCENTRICITY": 0.00013013, "INCLINATION": 42.9994, "RA_OF_ASC_NODE": 103.7416, "ARG_OF_PERICENTER": 276.193, "MEAN_ANOMALY": 170.3926, "EPHEMERIS_TYPE": 0, "CLASSIFICATION_TYPE": "U", "NORAD_CAT_ID": 66524, "ELEMENT_SET_NO": 999, "REV_AT_EPOCH": 364, "BSTAR": -0.01372319, "MEAN_MOTION_DOT": -0.01799219, "MEAN_MOTION_DDOT": 0}, "tle": {"line1": "1 66524U 25265J   25338.33335648 -.01799219  00000+0 -13723-1 0  9995", "line2": "2 66524  42.9994 103.7416 0001301 276.1930 170.3926 15.74429896  3643"}}, "geometry": {"type": "Point", "coordinates": [-21.151593570897344, -38.188644221603354]}}, {"type": "Feature", "properties": {"norad_id": 66525, "name": "STARLINK-35975", "group": "last-30-days", "lat": -38.87029111538237, "lon": -18.853117235977496, "alt_km": 353.1519271718598, "timestamp": "2025-12-04T17:48:38.963652+00:00", "meta": {"OBJECT_NAME": "STARLINK-35975", "OBJECT_ID": "2025-265K", "EPOCH": "2025-12-04T08:00:01.999872", "MEAN_MOTION": 15.74415356, "ECCENTRICITY": 0.00010763, "INCLINATION": 42.9995, "RA_OF_ASC_NODE": 103.737, "ARG_OF_PERICENTER": 256.4139, "MEAN_ANOMALY": 192.121, "EPHEMERIS_TYPE": 0, "CLASSIFICATION_TYPE": "U", "NORAD_CAT_ID": 66525, "ELEMENT_SET_NO": 999, "REV_AT_EPOCH": 364, "BSTAR": -0.013822955, "MEAN_MOTION_DOT": -0.01809451, "MEAN_MOTION_DDOT": 0}, "tle": {"line1": "1 66525U 25265K   25338.33335648 -.01809451  00000+0 -13823-1 0  9997", "line2": "2 66525  42.9995 103.7370 0001076 256.4139 192.1210 15.74415356  3649"}}, "geometry": {"type": "Point", "coordinates": [-18.853117235977496, -38.87029111538237]}}, {"type": "Feature", "properties": {"norad_id": 66526, "name": "STARLINK-35932", "group": "last-30-days", "lat": -39.50126203393102, "lon": -16.529523079436856, "alt_km": 352.8800366462965, "timestamp": "2025-12-04T17:48:38.963662+00:00", "meta": {"OBJECT_NAME": "STARLINK-35932", "OBJECT_ID": "2025-265L", "EPOCH": "2025-12-04T08:00:01.999872", "MEAN_MOTION": 15.74422848, "ECCENTRICITY": 0.00016145, "INCLINATION": 42.9996, "RA_OF_ASC_NODE": 103.7323, "ARG_OF_PERICENTER": 266.8006, "MEAN_ANOMALY": 183.6541, "EPHEMERIS_TYPE": 0, "CLASSIFICATION_TYPE": "U", "NORAD_CAT_ID": 66526, "ELEMENT_SET_NO": 999, "REV_AT_EPOCH": 353, "BSTAR": -0.013939557, "MEAN_MOTION_DOT": -0.01823724, "MEAN_MOTION_DDOT": 0}, "tle": {"line1": "1 66526U 25265L   25338.33335648 -.01823724  00000+0 -13940-1 0  9997", "line2": "2 66526  42.9996 103.7323 0001614 266.8006 183.6541 15.74422848  3539"}}, "geometry": {"type": "Point", "coordinates": [-16.529523079436856, -39.50126203393102]}}, {"type": "Feature", "properties": {"norad_id": 66527, "name": "STARLINK-35935", "group": "last-30-days", "lat": -40.08542702291798, "lon": -14.162009164589131, "alt_km": 353.4492590543823, "timestamp": "2025-12-04T17:48:38.963672+00:00", "meta": {"OBJECT_NAME": "STARLINK-35935", "OBJECT_ID": "2025-265M", "EPOCH": "2025-12-04T08:00:01.999872", "MEAN_MOTION": 15.74419084, "ECCENTRICITY": 7.186e-05, "INCLINATION": 42.9995, "RA_OF_ASC_NODE": 103.7277, "ARG_OF_PERICENTER": 252.0438, "MEAN_ANOMALY": 200.3211, "EPHEMERIS_TYPE": 0, "CLASSIFICATION_TYPE": "U", "NORAD_CAT_ID": 66527, "ELEMENT_SET_NO": 999, "REV_AT_EPOCH": 364, "BSTAR": -0.013832645, "MEAN_MOTION_DOT": -0.01810543, "MEAN_MOTION_DDOT": 0}, "tle": {"line1": "1 66527U 25265M   25338.33335648 -.01810543  00000+0 -13833-1 0  9994", "line2": "2 66527  42.9995 103.7277 0000718 252.0438 200.3211 15.74419084  3648"}}, "geometry": {"type": "Point", "coordinates": [-14.162009164589131, -40.08542702291798]}}, {"type": "Feature", "properties": {"norad_id": 66528, "name": "STARLINK-35928", "group": "last-30-days", "lat": -40.62167769472785, "lon": -11.750853459241958, "alt_km": 353.1572755478255, "timestamp": "2025-12-04T17:48:38.963684+00:00", "meta": {"OBJECT_NAME": "STARLINK-35928", "OBJECT_ID": "2025-265N", "EPOCH": "2025-12-04T08:00:01.999872", "MEAN_MOTION": 15.7442105, "ECCENTRICITY": 0.00011851, "INCLINATION": 42.9997, "RA_OF_ASC_NODE": 103.7227, "ARG_OF_PERICENTER": 261.9344, "MEAN_ANOMALY": 192.3503, "EPHEMERIS_TYPE": 0, "CLASSIFICATION_TYPE": "U", "NORAD_CAT_ID": 66528, "ELEMENT_SET_NO": 999, "REV_AT_EPOCH": 364, "BSTAR": -0.013884221, "MEAN_MOTION_DOT": -0.0181693, "MEAN_MOTION_DDOT": 0}, "tle": {"line1": "1 66528U 25265N   25338.33335648 -.01816930  00000+0 -13884-1 0  9997", "line2": "2 66528  42.9997 103.7227 0001185 261.9344 192.3503 15.74421050  3640"}}, "geometry": {"type": "Point", "coordinates": [-11.750853459241958, -40.62167769472785]}}, {"type": "Feature", "properties": {"norad_id": 66529, "name": "STARLINK-35933", "group": "last-30-days", "lat": -41.105845641208724, "lon": -9.306209929478756, "alt_km": 353.20701655548237, "timestamp": "2025-12-04T17:48:38.963698+00:00", "meta": {"OBJECT_NAME": "STARLINK-35933", "OBJECT_ID": "2025-265P", "EPOCH": "2025-12-04T08:00:01.999872", "MEAN_MOTION": 15.74420635, "ECCENTRICITY": 0.00011211, "INCLINATION": 42.9996, "RA_OF_ASC_NODE": 103.7175, "ARG_OF_PERICENTER": 256.6509, "MEAN_ANOMALY": 199.546, "EPHEMERIS_TYPE": 0, "CLASSIFICATION_TYPE": "U", "NORAD_CAT_ID": 66529, "ELEMENT_SET_NO": 999, "REV_AT_EPOCH": 364, "BSTAR": -0.013843886, "MEAN_MOTION_DOT": -0.01812244, "MEAN_MOTION_DDOT": 0}, "tle": {"line1": "1 66529U 25265P   25338.33335648 -.01812244  00000+0 -13844-1 0  9998", "line2": "2 66529  42.9996 103.7175 0001121 256.6509 199.5460 15.74420635  3645"}}, "geometry": {"type": "Point", "coordinates": [-9.306209929478756, -41.105845641208724]}}]}